{"fetched_at":"2026-03-30T09:12:31Z","count":15922,"tles":[{"name":"STARLINK-32661","line1":"1 62899U 25024W   26087.76317008  .00026935  00000+0  98384-3 0  9991","line2":"2 62899  43.0005 217.5863 0001434 259.4382 100.6309 15.27610670 65189","category":"Starlink"}]}