{
  "norad_id": 62899,
  "name": "STARLINK-32661",
  "history": [
    {
      "epoch": "2026-03-28T18:18:57.894912Z",
      "apogee_km": 483.9416903672054,
      "perigee_km": 481.9728307581945,
      "latitude_deg": 6.728437278688539e-05,
      "longitude_deg": 116.66619232514086,
      "height_km": 482.91443326178876,
      "semi_major_axis_km": 6861.0942605627,
      "eccentricity": 0.00014348,
      "inclination_deg": 43.0005,
      "raan_deg": 217.5863,
      "arg_perigee_deg": 259.4382,
      "mean_anomaly_deg": 100.6309,
      "mean_motion_rev_day": 15.2761067
    }
  ]
}